{
  "links" : {
    "next" : "https://api.nasa.gov/neo/rest/v1/feed?start_date=1998-12-09&end_date=1998-12-09&detailed=true&api_key=t0TVs3DtDT2H8Oy2Zy8m2eVrNsAVKAexjcZXUckd",
    "prev" : "https://api.nasa.gov/neo/rest/v1/feed?start_date=1998-12-07&end_date=1998-12-07&detailed=true&api_key=t0TVs3DtDT2H8Oy2Zy8m2eVrNsAVKAexjcZXUckd",
    "self" : "https://api.nasa.gov/neo/rest/v1/feed?start_date=1998-12-08&end_date=1998-12-08&detailed=true&api_key=t0TVs3DtDT2H8Oy2Zy8m2eVrNsAVKAexjcZXUckd"
  },
  "element_count" : 7,
  "near_earth_objects" : {
    "1998-12-08" : [ {
      "links" : {
        "self" : "https://api.nasa.gov/neo/rest/v1/neo/3699447?api_key=t0TVs3DtDT2H8Oy2Zy8m2eVrNsAVKAexjcZXUckd"
      },
      "neo_reference_id" : "3699447",
      "name" : "(2014 WU362)",
      "nasa_jpl_url" : "http://ssd.jpl.nasa.gov/sbdb.cgi?sstr=3699447",
      "absolute_magnitude_h" : 20.9,
      "estimated_diameter" : {
        "kilometers" : {
          "estimated_diameter_min" : 0.1756123185,
          "estimated_diameter_max" : 0.3926810818
        },
        "meters" : {
          "estimated_diameter_min" : 175.6123184804,
          "estimated_diameter_max" : 392.6810818086
        },
        "miles" : {
          "estimated_diameter_min" : 0.1091204019,
          "estimated_diameter_max" : 0.2440006365
        },
        "feet" : {
          "estimated_diameter_min" : 576.1559189633,
          "estimated_diameter_max" : 1288.3238004408
        }
      },
      "is_potentially_hazardous_asteroid" : false,
      "close_approach_data" : [ {
        "close_approach_date" : "1998-12-08",
        "epoch_date_close_approach" : 913104000000,
        "relative_velocity" : {
          "kilometers_per_second" : "10.8621861114",
          "kilometers_per_hour" : "39103.8700011271",
          "miles_per_hour" : "24297.6241126448"
        },
        "miss_distance" : {
          "astronomical" : "0.3908845665",
          "lunar" : "152.054107666",
          "kilometers" : "58475500",
          "miles" : "36334992"
        },
        "orbiting_body" : "Earth"
      } ],
      "orbital_data" : {
        "orbit_id" : "10",
        "orbit_determination_date" : "2017-04-06 08:37:10",
        "orbit_uncertainty" : "5",
        "minimum_orbit_intersection" : ".227728",
        "jupiter_tisserand_invariant" : "4.029",
        "epoch_osculation" : "2458000.5",
        "eccentricity" : ".3032222710138113",
        "semi_major_axis" : "1.741087400026461",
        "inclination" : "19.28896493766053",
        "ascending_node_longitude" : "247.9360016292723",
        "orbital_period" : "839.1300730666704",
        "perihelion_distance" : "1.213150924556905",
        "perihelion_argument" : "178.779178501055",
        "aphelion_distance" : "2.269023875496016",
        "perihelion_time" : "2457839.371626341352",
        "mean_anomaly" : "69.12660668342501",
        "mean_motion" : ".4290157289731616",
        "equinox" : "J2000"
      }
    }, {
      "links" : {
        "self" : "https://api.nasa.gov/neo/rest/v1/neo/3720359?api_key=t0TVs3DtDT2H8Oy2Zy8m2eVrNsAVKAexjcZXUckd"
      },
      "neo_reference_id" : "3720359",
      "name" : "(2015 KU121)",
      "nasa_jpl_url" : "http://ssd.jpl.nasa.gov/sbdb.cgi?sstr=3720359",
      "absolute_magnitude_h" : 22.9,
      "estimated_diameter" : {
        "kilometers" : {
          "estimated_diameter_min" : 0.0699125232,
          "estimated_diameter_max" : 0.1563291544
        },
        "meters" : {
          "estimated_diameter_min" : 69.9125232246,
          "estimated_diameter_max" : 156.3291544087
        },
        "miles" : {
          "estimated_diameter_min" : 0.0434416145,
          "estimated_diameter_max" : 0.097138403
        },
        "feet" : {
          "estimated_diameter_min" : 229.3718026961,
          "estimated_diameter_max" : 512.8909429502
        }
      },
      "is_potentially_hazardous_asteroid" : false,
      "close_approach_data" : [ {
        "close_approach_date" : "1998-12-08",
        "epoch_date_close_approach" : 913104000000,
        "relative_velocity" : {
          "kilometers_per_second" : "13.3785894021",
          "kilometers_per_hour" : "48162.9218475449",
          "miles_per_hour" : "29926.5666335481"
        },
        "miss_distance" : {
          "astronomical" : "0.3181141348",
          "lunar" : "123.7463989258",
          "kilometers" : "47589196",
          "miles" : "29570556"
        },
        "orbiting_body" : "Earth"
      } ],
      "orbital_data" : {
        "orbit_id" : "32",
        "orbit_determination_date" : "2017-04-14 06:13:06",
        "orbit_uncertainty" : "2",
        "minimum_orbit_intersection" : ".0031712",
        "jupiter_tisserand_invariant" : "5.596",
        "epoch_osculation" : "2458000.5",
        "eccentricity" : ".495415446276373",
        "semi_major_axis" : "1.078100163913362",
        "inclination" : "13.34269374393799",
        "ascending_node_longitude" : "75.18415322045496",
        "orbital_period" : "408.871740496298",
        "perihelion_distance" : ".5439926900775929",
        "perihelion_argument" : "294.3831255213416",
        "aphelion_distance" : "1.612207637749131",
        "perihelion_time" : "2458062.111384369758",
        "mean_anomaly" : "305.7529191276701",
        "mean_motion" : ".8804717087148739",
        "equinox" : "J2000"
      }
    }, {
      "links" : {
        "self" : "https://api.nasa.gov/neo/rest/v1/neo/3733857?api_key=t0TVs3DtDT2H8Oy2Zy8m2eVrNsAVKAexjcZXUckd"
      },
      "neo_reference_id" : "3733857",
      "name" : "(2015 VO64)",
      "nasa_jpl_url" : "http://ssd.jpl.nasa.gov/sbdb.cgi?sstr=3733857",
      "absolute_magnitude_h" : 26.3,
      "estimated_diameter" : {
        "kilometers" : {
          "estimated_diameter_min" : 0.0146067964,
          "estimated_diameter_max" : 0.0326617897
        },
        "meters" : {
          "estimated_diameter_min" : 14.6067964271,
          "estimated_diameter_max" : 32.6617897446
        },
        "miles" : {
          "estimated_diameter_min" : 0.0090762397,
          "estimated_diameter_max" : 0.020295089
        },
        "feet" : {
          "estimated_diameter_min" : 47.92256199,
          "estimated_diameter_max" : 107.1581062656
        }
      },
      "is_potentially_hazardous_asteroid" : false,
      "close_approach_data" : [ {
        "close_approach_date" : "1998-12-08",
        "epoch_date_close_approach" : 913104000000,
        "relative_velocity" : {
          "kilometers_per_second" : "17.9657375888",
          "kilometers_per_hour" : "64676.6553195778",
          "miles_per_hour" : "40187.5584123232"
        },
        "miss_distance" : {
          "astronomical" : "0.4715392546",
          "lunar" : "183.4287719727",
          "kilometers" : "70541272",
          "miles" : "43832312"
        },
        "orbiting_body" : "Earth"
      } ],
      "orbital_data" : {
        "orbit_id" : "8",
        "orbit_determination_date" : "2017-04-06 08:30:53",
        "orbit_uncertainty" : "6",
        "minimum_orbit_intersection" : ".0164741",
        "jupiter_tisserand_invariant" : "4.838",
        "epoch_osculation" : "2458000.5",
        "eccentricity" : ".2444427883122726",
        "semi_major_axis" : "1.332124649068947",
        "inclination" : "18.27080924570015",
        "ascending_node_longitude" : "44.10190343437439",
        "orbital_period" : "561.5852899297402",
        "perihelion_distance" : "1.006496385471026",
        "perihelion_argument" : "4.257887007786024",
        "aphelion_distance" : "1.657752912666868",
        "perihelion_time" : "2457898.925031678865",
        "mean_anomaly" : "65.11386471711789",
        "mean_motion" : ".6410424319430439",
        "equinox" : "J2000"
      }
    } ]
  }
}